BEIDOU-3S IGSO-1S       
1 40549U 15019A   26157.86275140 -.00000164  00000+0  00000+0 0  9992
2 40549  49.2162 295.5865 0038559 191.1956 171.3970  1.00253110 40971
NAVSTAR 74 (USA 262)    
1 40730U 15033A   26157.75053547 -.00000029  00000+0  00000+0 0  9993
2 40730  53.9907 267.5170 0115041  30.1881 330.4944  2.00556823 79789
BEIDOU-3S M2S           
1 40748U 15037A   26156.51044521 -.00000055  00000+0  00000+0 0  9990
2 40748  54.8818 302.4477 0007883 262.1990  97.7004  1.86232430 73906
BEIDOU-3S M1S           
1 40749U 15037B   26157.79304823 -.00000054  00000+0  00000+0 0  9995
2 40749  54.8774 302.3918 0003632  60.7446 299.2833  1.86254904 73935
GSAT0205 (GALILEO 9)    
1 40889U 15045A   26144.30399159 -.00000014  00000+0  00000+0 0  9994
2 40889  54.9357 222.4171 0006405 263.0112  96.9692  1.67409242 66562
GSAT0206 (GALILEO 10)   
1 40890U 15045B   26157.31220717  .00000041  00000+0  00000+0 0  9993
2 40890  54.9476 221.9050 0001712 337.7692  22.3083  1.70474019 66851
BEIDOU-3S IGSO-2S       
1 40938U 15053A   26157.75858402 -.00000140  00000+0  00000+0 0  9992
2 40938  49.2391 258.9076 0064957 191.9372 173.1063  1.00261954 39252
NAVSTAR 75 (USA 265)    
1 41019U 15062A   26156.31132486 -.00000068  00000+0  00000+0 0  9990
2 41019  56.9514  31.2688 0111581 231.1680 127.8846  2.00567113 77592
GSAT-15                 
1 41028U 15065A   26158.15016693 -.00000244  00000+0  00000+0 0  9994
2 41028   0.0478 114.3753 0004055 323.7611 324.9983  1.00271643 38695
GSAT0209 (GALILEO 12)   
1 41174U 15079A   26156.30703759  .00000019  00000+0  00000+0 0  9991
2 41174  55.8207 101.5878 0005440 339.2511  20.6937  1.70473904 64577
GSAT0208 (GALILEO 11)   
1 41175U 15079B   26157.70048902  .00000024  00000+0  00000+0 0  9995
2 41175  55.8201 101.5466 0005249 332.4167  27.5281  1.70473667 65018
IRNSS-1E                
1 41241U 16003A   26157.65470183 -.00000294  00000+0  00000+0 0  9991
2 41241  33.2123  59.9028 0017895 179.5465   3.0470  1.00270004 37972
NAVSTAR 76 (USA 266)    
1 41328U 16007A   26155.90285179  .00000004  00000+0  00000+0 0  9994
2 41328  55.5169  89.9466 0096310 247.3906 111.5783  2.00552419 75593
COSMOS 2514 [GLONASS-M] 
1 41330U 16008A   26157.96145302 -.00000029  00000+0  00000+0 0  9997
2 41330  65.0283 313.3575 0010880 197.3828 162.5771  2.13102762 80404
BEIDOU-2 IGSO-6         
1 41434U 16021A   26157.01392066 -.00000145  00000+0  00000+0 0  9993
2 41434  60.2097  38.1520 0057221 231.5167  83.2996  1.00261920 37360
IRNSS-1G                
1 41469U 16027A   26157.80090475 -.00000320  00000+0  00000+0 0  9998
2 41469   5.1727  97.7134 0007459 352.2727 223.1404  1.00271419 37070
GSAT0211 (GALILEO 14)   
1 41549U 16030A   26156.65135299  .00000041  00000+0  00000+0 0  9996
2 41549  55.0990 222.0126 0002678 329.1456  30.9257  1.70474112 62473
GSAT0210 (GALILEO 13)   
1 41550U 16030B   26155.73546720  .00000041  00000+0  00000+0 0  9991
2 41550  55.0978 222.0357 0003015 229.1415 130.9222  1.70474170 62452
BEIDOU-2 G7             
1 41586U 16037A   26158.15392259 -.00000339  00000+0  00000+0 0  9993
2 41586   1.6947  69.2314 0007323   1.6708 350.6279  1.00270044  6786
EUTELSAT 117 WEST B     
1 41589U 16038B   26158.25109818  .00000003  00000+0  00000+0 0  9992
2 41589   0.0028 136.2512 0000243 340.2303 112.5560  1.00269509 36565
GSAT0207 (GALILEO 15)   
1 41859U 16069A   26156.60027716  .00000019  00000+0  00000+0 0  9996
2 41859  55.4919 101.4069 0005483 326.6473  33.2866  1.70473771 59205
GSAT0212 (GALILEO 16)   
1 41860U 16069B   26157.04030880  .00000021  00000+0  00000+0 0  9996
2 41860  55.4899 101.3899 0004681 354.1097   5.8552  1.70473908 59468
GSAT0213 (GALILEO 17)   
1 41861U 16069C   26156.23439190  .00000017  00000+0  00000+0 0  9999
2 41861  55.4909 101.4200 0005209 311.1245  48.7972  1.70474348 59318
GSAT0214 (GALILEO 18)   
1 41862U 16069D   26157.55375951  .00000023  00000+0  00000+0 0  9997
2 41862  55.4911 101.3760 0004310 318.2994  41.6400  1.70473962 59468
SES-15                  
1 42709U 17026A   26158.27825483  .00000074  00000+0  00000+0 0  9998
2 42709   0.0211 327.3400 0000649  90.7057 168.6678  1.00270666  7337
QZS-2 (MICHIBIKI-2)     
1 42738U 17028A   26157.54144826 -.00000152  00000+0  00000+0 0  9994
2 42738  39.4434 243.3115 0760531 269.1455  78.6569  1.00286802  7517
QZS-3 (MICHIBIKI-3)     
1 42917U 17048A   26158.20114127 -.00000334  00000+0  00000+0 0  9992
2 42917   0.0579 186.8385 0002765 258.8187   9.3965  1.00270511 32154
COSMOS 2522 [GLONASS-M] 
1 42939U 17055A   26158.26853065  .00000086  00000+0  00000+0 0  9994
2 42939  64.0780 192.2221 0010552 239.6685 120.2944  2.13102036 67761
QZS-4 (MICHIBIKI-4)     
1 42965U 17062A   26157.37281824 -.00000313  00000+0  00000+0 0  9994
2 42965  40.1149 343.6213 0744893 271.5546 271.6824  1.00254650 31696
BEIDOU-3 M1             
1 43001U 17069A   26156.85695868 -.00000038  00000+0  00000+0 0  9996
2 43001  56.6823  63.4582 0010790 323.7021  36.2527  1.86231597 58395
BEIDOU-3 M2             
1 43002U 17069B   26157.86958759 -.00000038  00000+0  00000+0 0  9990
2 43002  56.6831  63.4601 0009370 348.1510  11.8549  1.86231086 58401
